[{"OBJECT_NAME":"ONEWEB-0209","OBJECT_ID":"2021-031F","EPOCH":"2026-03-09T16:19:42.544992","MEAN_MOTION":13.14502284,"ECCENTRICITY":0.00017988,"INCLINATION":87.898,"RA_OF_ASC_NODE":309.5754,"ARG_OF_PERICENTER":76.1733,"MEAN_ANOMALY":283.9597,"EPHEMERIS_TYPE":0,"CLASSIFICATION_TYPE":"U","NORAD_CAT_ID":48215,"ELEMENT_SET_NO":999,"REV_AT_EPOCH":23530,"BSTAR":-0.00014704773,"MEAN_MOTION_DOT":-4.2e-7,"MEAN_MOTION_DDOT":0},{"OBJECT_NAME":"TUBSAT B","OBJECT_ID":"1994-003C","EPOCH":"2026-03-09T18:44:33.482976","MEAN_MOTION":13.17152588,"ECCENTRICITY":0.00174374,"INCLINATION":82.5657,"RA_OF_ASC_NODE":156.0592,"ARG_OF_PERICENTER":90.3714,"MEAN_ANOMALY":28.1979,"EPHEMERIS_TYPE":0,"CLASSIFICATION_TYPE":"U","NORAD_CAT_ID":22971,"ELEMENT_SET_NO":999,"REV_AT_EPOCH":54398,"BSTAR":0.00029992922,"MEAN_MOTION_DOT":1.28e-6,"MEAN_MOTION_DDOT":0}]
